OBJECT A                
1 60745U 24153A   24329.13926476  .00016276  00000+0  91793-3 0  9998
2 60745  97.6227  86.3551 0014405 351.0268   9.0703 15.13163999 13138
